NORAD_CAT_ID,OBJECT_NAME,OBJECT_TYPE,EPOCH,MEAN_MOTION,ECCENTRICITY,INCLINATION,RA_OF_ASC_NODE,ARG_OF_PERICENTER,MEAN_ANOMALY,BSTAR,MEAN_MOTION_DOT,MEAN_MOTION_DDOT,TLE_LINE0,TLE_LINE1,TLE_LINE2,SEMIMAJOR_AXIS,PERIOD,APOGEE,PERIGEE,DECAYED
52598.0,STARLINK-4019,PAYLOAD,2022-07-30 22:00:00,15.08843657,0.0001914,53.2149,79.834,62.3878,312.3208,-0.00079982,-0.00012996,0.0,0 STARLINK-4019,1 52598U 22052A   22211.91667824 -.00012996  00000-0 -79982-3 0  9998,2 52598  53.2149  79.8340 0001914  62.3878 312.3208 15.08843657  1305,6917.869000000002,95.437,541.058,538.41,0.0
52598.0,STARLINK-4019,PAYLOAD,2022-07-31 06:00:02,15.08859363,0.0001864,53.2148,78.3369,61.8291,324.5318,-0.0019074,-0.00030533,0.0,0 STARLINK-4019,1 52598U 22052A   22212.25002315 -.00030533  00000-0 -19074-2 0  9996,2 52598  53.2148  78.3369 0001864  61.8291 324.5318 15.08859363 12261,6917.821,95.436,540.976,538.3969999999998,0.0
52598.0,STARLINK-4019,PAYLOAD,2022-07-31 14:00:01,15.08833735,0.0001799,53.2151,76.8392,69.3128,328.5944,0.0023426,0.00037185,0.0,0 STARLINK-4019,1 52598U 22052A   22212.58334491  .00037185  00000-0  23426-2 0  9999,2 52598  53.2151  76.8392 0001799  69.3128 328.5944 15.08833735  1300,6917.9,95.438,541.009,538.52,0.0
52598.0,STARLINK-4019,PAYLOAD,2022-07-31 22:00:00,15.08865393,0.0001885999999999,53.2151,75.3444,63.1433,346.3657,-0.0033005,-0.00052471,0.0,0 STARLINK-4019,1 52598U 22052A   22212.91667824 -.00052471  00000-0 -33005-2 0  9996,2 52598  53.2151  75.3444 0001886  63.1433 346.3657 15.08865393 12362,6917.803000000001,95.436,540.972,538.363,0.0
52598.0,STARLINK-4019,PAYLOAD,2022-08-01 14:00:01,15.08822785,0.0001696,53.2151,72.3497,70.3287,2.3725,0.0019582999999999,0.00031001,0.0,0 STARLINK-4019,1 52598U 22052A   22213.58334491  .00031001  00000-0  19583-2 0  9990,2 52598  53.2151  72.3497 0001696  70.3287   2.3725 15.08822785  1308,6917.933000000001,95.439,540.971,538.625,0.0
52598.0,STARLINK-4019,PAYLOAD,2022-08-01 22:00:00,15.08835687,0.000181,53.2151,70.855,64.2582,20.0305,-0.00040815,-6.777e-05,0.0,0 STARLINK-4019,1 52598U 22052A   22213.91667824 -.00006777  00000-0 -40815-3 0  9993,2 52598  53.2151  70.8550 0001810  64.2582  20.0305 15.08835687  1305,6917.894,95.438,541.011,538.506,0.0
52598.0,STARLINK-4019,PAYLOAD,2022-08-02 06:00:02,15.08853677,0.0001736,53.2148,69.3576,65.5013,30.4346,-0.002022,-0.00032337,0.0,0 STARLINK-4019,1 52598U 22052A   22214.25002315 -.00032337  00000-0 -20220-2 0  9997,2 52598  53.2148  69.3576 0001736  65.5013  30.4346 15.08853677 12561,6917.839,95.437,540.905,538.503,0.0
52598.0,STARLINK-4019,PAYLOAD,2022-08-02 14:00:01,15.08836693,0.0001699999999999,53.215,67.8602,72.9979,34.4733,0.0013880999999999,0.00021871,0.0,0 STARLINK-4019,1 52598U 22052A   22214.58334491  .00021871  00000-0  13881-2 0  9990,2 52598  53.2150  67.8602 0001700  72.9979  34.4733 15.08836693 12610,6917.89,95.438,540.932,538.5790000000002,0.0
52598.0,STARLINK-4019,PAYLOAD,2022-08-03 06:00:00,15.08873578,0.0001683,53.2146,64.8682,67.7034,62.9633,-0.0046492,-0.00073593,0.0,0 STARLINK-4019,1 52598U 22052A   22215.25001157 -.00073593  00000-0 -46492-2 0  9999,2 52598  53.2146  64.8682 0001683  67.7034  62.9633 15.08873578 12713,6917.778,95.435,540.807,538.4780000000002,0.0
52598.0,STARLINK-4019,PAYLOAD,2022-08-03 14:00:01,15.08823736,0.0001612,53.2149,63.3709,74.0035,68.268,0.00093679,0.00014646,0.0,0 STARLINK-4019,1 52598U 22052A   22215.58334491  .00014646  00000-0  93679-3 0  9997,2 52598  53.2149  63.3709 0001612  74.0035  68.2680 15.08823736  1309,6917.93,95.439,540.91,538.68,0.0
52598.0,STARLINK-4019,PAYLOAD,2022-08-03 22:00:01,15.08819585,0.0001701,53.2148,61.8763,66.0341,87.8845,0.00060472,9.344e-05,0.0,0 STARLINK-4019,1 52598U 22052A   22215.91668981  .00009344  00000-0  60472-3 0  9992,2 52598  53.2148  61.8763 0001701  66.0341  87.8845 15.08819585  1308,6917.943,95.439,540.985,538.631,0.0
52598.0,STARLINK-4019,PAYLOAD,2022-08-04 14:00:01,15.08837669,0.0001652,53.2149,58.8818,74.568,102.4478,0.00059804,9.242e-05,0.0,0 STARLINK-4019,1 52598U 22052A   22216.58334491  .00009242  00000-0  59804-3 0  9996,2 52598  53.2149  58.8818 0001652  74.5680 102.4478 15.08837669  1300,6917.888000000001,95.438,540.895,538.61,0.0
52598.0,STARLINK-4019,PAYLOAD,2022-08-04 22:00:00,15.08826273,0.0001745,53.2148,57.3871,66.0183,122.5961,0.0012224,0.00019213,0.0,0 STARLINK-4019,1 52598U 22052A   22216.91667824  .00019213  00000-0  12224-2 0  9995,2 52598  53.2148  57.3871 0001745  66.0183 122.5961 15.08826273  1308,6917.922,95.438,540.995,538.58,0.0
52598.0,STARLINK-4019,PAYLOAD,2022-08-05 06:00:02,15.08855162,0.0001645,53.2148,55.8893,68.6161,131.6477,-0.0017019,-0.00027283,0.0,0 STARLINK-4019,1 52598U 22052A   22217.25002315 -.00027283  00000-0 -17019-2 0  9996,2 52598  53.2148  55.8893 0001645  68.6161 131.6477 15.08855162 13011,6917.834,95.437,540.837,538.561,0.0
52598.0,STARLINK-4019,PAYLOAD,2022-08-05 14:00:01,15.08863685,0.0001657,53.2151,54.3925,73.9414,137.9201,-0.0018774999999999,-0.00030064,0.0,0 STARLINK-4019,1 52598U 22052A   22217.58335648 -.00030064  00000-0 -18775-2 0  9991,2 52598  53.2151  54.3925 0001657  73.9414 137.9201 15.08863685  1300,6917.808000000001,95.436,540.819,538.5269999999998,0.0
52598.0,STARLINK-4019,PAYLOAD,2022-08-05 22:00:00,15.08815851,0.0001689,53.2152,52.8979,63.8095,159.6072,0.0013308,0.00020941,0.0,0 STARLINK-4019,1 52598U 22052A   22217.91667824  .00020941  00000-0  13308-2 0  9990,2 52598  53.2152  52.8979 0001689  63.8095 159.6072 15.08815851  1300,6917.954000000002,95.439,540.988,538.651,0.0
52598.0,STARLINK-4019,PAYLOAD,2022-08-06 14:00:01,15.08844115,0.0001626,53.2156,49.9034,72.1534,174.4208,8.8359e-05,1.119e-05,0.0,0 STARLINK-4019,1 52598U 22052A   22218.58334491  .00001119  00000-0  88359-4 0  9991,2 52598  53.2156  49.9034 0001626  72.1534 174.4208 15.08844115  1306,6917.868,95.437,540.8580000000002,538.6080000000002,0.0
52598.0,STARLINK-4019,PAYLOAD,2022-08-06 22:00:00,15.08823603,0.0001739,53.2157,48.4087,63.5546,194.6238,0.0023022,0.00036525,0.0,0 STARLINK-4019,1 52598U 22052A   22218.91667824  .00036525  00000-0  23022-2 0  9990,2 52598  53.2157  48.4087 0001739  63.5546 194.6238 15.08823603 13276,6917.931,95.439,540.999,538.592,0.0
52598.0,STARLINK-4019,PAYLOAD,2022-08-07 14:00:01,15.08843421,0.0001559,53.216,45.4142,70.8535,210.5166,-0.0011375,-0.00018347,0.0,0 STARLINK-4019,1 52598U 22052A   22219.58334491 -.00018347  00000-0 -11375-2 0  9997,2 52598  53.2160  45.4142 0001559  70.8535 210.5166 15.08843421  1307,6917.87,95.437,540.813,538.656,0.0
52598.0,STARLINK-4019,PAYLOAD,2022-08-07 20:42:25,15.08834705,0.0001733,53.2173,44.1596,94.5499,265.5691,-9.2851e-05,-1.765e-05,0.0,0 STARLINK-4019,1 52598U 22052A   22219.86279841 -.00001765  00000-0 -92851-4 0  9991,2 52598  53.2173  44.1596 0001733  94.5499 265.5691 15.08834705 13846,6917.897,95.438,540.96,538.563,0.0
52598.0,STARLINK-4019,PAYLOAD,2022-08-08 06:00:00,15.08844434,0.0001506,53.2161,42.4215,66.5718,237.9814,-0.00022566,-3.878e-05,0.0,0 STARLINK-4019,1 52598U 22052A   22220.25001157 -.00003878  00000-0 -22566-3 0  9991,2 52598  53.2161  42.4215 0001506  66.5718 237.9814 15.08844434 13472,6917.8669999999975,95.437,540.774,538.69,0.0
52598.0,STARLINK-4019,PAYLOAD,2022-08-08 14:00:01,15.08865119,0.000149,53.2162,40.925,70.171,246.0409,-0.00037231,-6.213e-05,0.0,0 STARLINK-4019,1 52598U 22052A   22220.58335648 -.00006213  00000-0 -37231-3 0  9993,2 52598  53.2162  40.9250 0001490  70.1710 246.0409 15.08865119  1303,6917.804,95.436,540.6990000000002,538.638,0.0
52598.0,STARLINK-4019,PAYLOAD,2022-08-08 22:00:00,15.08847274,0.000153,53.216,39.4301,60.3311,267.4487,0.00022689,3.326e-05,0.0,0 STARLINK-4019,1 52598U 22052A   22220.91667824  .00003326  00000-0  22689-3 0  9995,2 52598  53.2160  39.4301 0001530  60.3311 267.4487 15.08847274  1309,6917.858,95.437,540.7819999999998,538.665,0.0
52598.0,STARLINK-4019,PAYLOAD,2022-08-09 14:00:01,15.08837257,0.0001276,53.216,36.4357,67.6248,283.347,-0.00097308,-0.0001574,0.0,0 STARLINK-4019,1 52598U 22052A   22221.58334491 -.00015740  00000-0 -97308-3 0  9995,2 52598  53.2160  36.4357 0001276  67.6248 283.3470 15.08837257  1302,6917.889,95.438,540.636,538.871,0.0
52598.0,STARLINK-4019,PAYLOAD,2022-08-09 22:00:00,15.08804289,0.0001341999999999,53.2157,34.9407,57.5065,305.0148,0.0030014,0.00047756,0.0,0 STARLINK-4019,1 52598U 22052A   22221.91667824  .00047756  00000-0  30014-2 0  9991,2 52598  53.2157  34.9407 0001342  57.5065 305.0148 15.08804289 13728,6917.99,95.44,540.783,538.9259999999998,0.0
52598.0,STARLINK-4019,PAYLOAD,2022-08-10 14:00:01,15.08854781,0.0001242,53.2156,31.9466,67.3483,318.3271,-0.0012798,-0.00020606,0.0,0 STARLINK-4019,1 52598U 22052A   22222.58334491 -.00020606  00000-0 -12798-2 0  9992,2 52598  53.2156  31.9466 0001242  67.3483 318.3271 15.08854781  1308,6917.835,95.437,540.559,538.841,0.0
52598.0,STARLINK-4019,PAYLOAD,2022-08-10 17:07:18,15.08851292,0.0001323,53.2153,31.3633,62.5652,310.0146,-0.0014801999999999,-0.00023775,0.0,0 STARLINK-4019,1 52598U 22052A   22222.71341435 -.00023775  00000-0 -14802-2 0  9991,2 52598  53.2153  31.3633 0001323  62.5652 310.0146 15.08851292 13846,6917.846,95.437,540.626,538.7959999999998,0.0
52598.0,STARLINK-4019,PAYLOAD,2022-08-10 22:00:00,15.08833362,0.0001371,53.2152,30.4513,58.8015,338.4811,9.6567e-05,1.249e-05,0.0,0 STARLINK-4019,1 52598U 22052A   22222.91667824  .00001249  00000-0  96567-4 0  9996,2 52598  53.2152  30.4513 0001371  58.8015 338.4811 15.08833362  1305,6917.901,95.438,540.714,538.817,0.0
52598.0,STARLINK-4019,PAYLOAD,2022-08-11 14:00:01,15.08843656,0.0001371,53.2152,27.4572,68.8766,351.5624,-0.0015906,-0.00025515,0.0,0 STARLINK-4019,1 52598U 22052A   22223.58334491 -.00025515  00000-0 -15906-2 0  9991,2 52598  53.2152  27.4572 0001371  68.8766 351.5624 15.08843656  1305,6917.869000000002,95.437,540.683,538.786,0.0
